NORAD_CAT_ID,OBJECT_NAME,OBJECT_TYPE,EPOCH,MEAN_MOTION,ECCENTRICITY,INCLINATION,RA_OF_ASC_NODE,ARG_OF_PERICENTER,MEAN_ANOMALY,BSTAR,MEAN_MOTION_DOT,MEAN_MOTION_DDOT,TLE_LINE0,TLE_LINE1,TLE_LINE2,SEMIMAJOR_AXIS,PERIOD,APOGEE,PERIGEE,DECAYED
54771.0,STARLINK-5451,PAYLOAD,2024-07-29 13:18:14,15.08847256,0.0001297,53.2171,159.1644,101.0319,259.0819,9.1704e-06,-1.42e-06,0.0,0 STARLINK-5451,1 54771U 22175P   24211.55433964 -.00000142  00000-0  91704-5 0  9994,2 54771  53.2171 159.1644 0001297 101.0319 259.0819 15.08847256 89040,6917.858,95.437,540.62,538.826,0.0
54771.0,STARLINK-5451,PAYLOAD,2024-07-30 03:36:44,15.08827774,0.0001624,53.2179,156.4917,113.3131,246.8032,8.8888e-05,1.126e-05,0.0,0 STARLINK-5451,1 54771U 22175P   24212.15051370  .00001126  00000-0  88888-4 0  9998,2 54771  53.2179 156.4917 0001624 113.3131 246.8032 15.08827774 89137,6917.918,95.438,540.906,538.659,0.0
54771.0,STARLINK-5451,PAYLOAD,2024-07-30 13:09:02,15.08845598,0.000144,53.218,154.7055,100.219,259.8965,0.00017879,2.559e-05,0.0,0 STARLINK-5451,1 54771U 22175P   24212.54794110  .00002559  00000-0  17879-3 0  9999,2 54771  53.2180 154.7055 0001440 100.2190 259.8965 15.08845598 89198,6917.863,95.437,540.724,538.732,0.0
54771.0,STARLINK-5451,PAYLOAD,2024-07-31 03:27:31,15.08832405,0.0001473,53.2181,152.029,92.463,267.653,6.5904e-05,7.61e-06,0.0,0 STARLINK-5451,1 54771U 22175P   24213.14411693  .00000761  00000-0  65904-4 0  9994,2 54771  53.2181 152.0290 0001473  92.4630 267.6530 15.08832405 89286,6917.904,95.438,540.788,538.75,0.0
54771.0,STARLINK-5451,PAYLOAD,2024-07-31 12:59:49,15.08847986,0.0001517,53.218,150.2422,80.0993,280.017,0.00010915,1.45e-05,0.0,0 STARLINK-5451,1 54771U 22175P   24213.54154630  .00001450  00000-0  10915-3 0  9990,2 54771  53.2180 150.2422 0001517  80.0993 280.0170 15.08847986 89342,6917.856,95.437,540.77,538.672,0.0
54771.0,STARLINK-5451,PAYLOAD,2024-07-31 19:21:22,15.08839453,0.0001576,53.2166,149.0577,86.6786,273.4387,0.0001239,1.684e-05,0.0,0 STARLINK-5451,1 54771U 22175P   24213.80651204  .00001684  00000-0  12390-3 0  9996,2 54771  53.2166 149.0577 0001576  86.6786 273.4387 15.08839453 89380,6917.882,95.438,540.837,538.657,0.0
54771.0,STARLINK-5451,PAYLOAD,2024-08-01 12:50:36,15.08857216,0.0001477,53.2177,145.7839,83.4086,276.7075,0.00011784,1.589e-05,0.0,0 STARLINK-5451,1 54771U 22175P   24214.53513991  .00001589  00000-0  11784-3 0  9997,2 54771  53.2177 145.7839 0001477  83.4086 276.7075 15.08857216 89493,6917.828,95.436,540.715,538.671,0.0
54771.0,STARLINK-5451,PAYLOAD,2024-08-02 01:33:42,15.08832011,0.0001204,53.2181,143.4021,89.4385,270.6745,0.00010598,1.399e-05,0.0,0 STARLINK-5451,1 54771U 22175P   24215.06507616  .00001399  00000-0  10598-3 0  9994,2 54771  53.2181 143.4021 0001204  89.4385 270.6745 15.08832011 89574,6917.905,95.438,540.603,538.937,0.0
54771.0,STARLINK-5451,PAYLOAD,2024-08-03 01:24:29,15.08836185,0.0001281,53.2158,138.945,79.8886,280.2251,8.2609e-05,1.027e-05,0.0,0 STARLINK-5451,1 54771U 22175P   24216.05867329  .00001027  00000-0  82609-4 0  9995,2 54771  53.2158 138.9450 0001281  79.8886 280.2251 15.08836185 91889,6917.892,95.438,540.643,538.871,0.0
54771.0,STARLINK-5451,PAYLOAD,2024-08-03 18:53:43,15.08838349,0.0001483,53.2166,135.6744,83.6938,276.4223,1.3169e-05,-7.8e-07,0.0,0 STARLINK-5451,1 54771U 22175P   24216.78731321 -.00000078  00000-0  13169-4 0  9998,2 54771  53.2166 135.6744 0001483  83.6938 276.4223 15.08838349 89835,6917.885,95.438,540.776,538.725,0.0
54771.0,STARLINK-5451,PAYLOAD,2024-08-03 22:04:30,15.08834243,0.000135,53.2167,135.0779,88.2855,271.8291,4.3109e-05,3.98e-06,0.0,0 STARLINK-5451,1 54771U 22175P   24216.91979468  .00000398  00000-0  43109-4 0  9990,2 54771  53.2167 135.0779 0001350  88.2855 271.8291 15.08834243 92017,6917.898,95.438,540.697,538.829,0.0
54771.0,STARLINK-5451,PAYLOAD,2024-08-04 04:26:02,15.08842578,0.0001564,53.2173,133.885,112.7521,247.3636,2.3464e-05,8.5e-07,0.0,0 STARLINK-5451,1 54771U 22175P   24217.18474894  .00000085  00000-0  23464-4 0  9998,2 54771  53.2173 133.8850 0001564 112.7521 247.3636 15.08842578 92055,6917.873,95.437,540.819,538.656,0.0
54771.0,STARLINK-5451,PAYLOAD,2024-08-04 21:55:16,15.08832127,0.0001566,53.2174,130.614,110.8821,249.2339,0.00017829,2.55e-05,0.0,0 STARLINK-5451,1 54771U 22175P   24217.91339022  .00002550  00000-0  17829-3 0  9998,2 54771  53.2174 130.6140 0001566 110.8821 249.2339 15.08832127 92169,6917.904,95.438,540.853,538.686,0.0
54771.0,STARLINK-5451,PAYLOAD,2024-08-05 01:06:02,15.08844079,0.0001363,53.2173,130.0239,85.4673,274.6475,0.00012734,1.739e-05,0.0,0 STARLINK-5451,1 54771U 22175P   24218.04586703  .00001739  00000-0  12734-3 0  9991,2 54771  53.2173 130.0239 0001363  85.4673 274.6475 15.08844079 90023,6917.868,95.437,540.676,538.79,0.0
54771.0,STARLINK-5451,PAYLOAD,2024-08-05 21:46:07,15.0879616,0.0001266,53.2171,126.1534,104.4787,255.6346,-0.00028012,-4.738e-05,0.0,0 STARLINK-5451,1 54771U 22175P   24218.90703000 -.00004738  00000-0 -28012-3 0  9997,2 54771  53.2171 126.1534 0001266 104.4787 255.6346 15.08796160 90152,6918.014,95.44,540.755,539.004,0.0
54771.0,STARLINK-5451,PAYLOAD,2024-08-06 00:56:53,15.08801076,0.0001529,53.2179,125.5682,109.0234,251.0924,-0.00016368,-2.889e-05,0.0,0 STARLINK-5451,1 54771U 22175P   24219.03950760 -.00002889  00000-0 -16368-3 0  9995,2 54771  53.2179 125.5682 0001529 109.0234 251.0924 15.08801076 90174,6917.999,95.44,540.922,538.807,0.0
54771.0,STARLINK-5451,PAYLOAD,2024-08-06 21:36:52,15.08835469,0.0001101,53.2152,121.6888,53.6235,306.4859,-4.3856e-05,-9.86e-06,0.0,0 STARLINK-5451,1 54771U 22175P   24219.90061231 -.00000986  00000-0 -43856-4 0  9996,2 54771  53.2152 121.6888 0001101  53.6235 306.4859 15.08835469 92460,6917.894,95.438,540.521,538.998,0.0
54771.0,STARLINK-5451,PAYLOAD,2024-08-06 23:12:15,15.08840657,0.0001302,53.2172,121.3998,104.8104,255.3032,2.6196e-05,1.29e-06,0.0,0 STARLINK-5451,1 54771U 22175P   24219.96684721  .00000129  00000-0  26196-4 0  9992,2 54771  53.2172 121.3998 0001302 104.8104 255.3032 15.08840657 90310,6917.878,95.438,540.644,538.843,0.0
54771.0,STARLINK-5451,PAYLOAD,2024-08-08 02:13:48,15.0884398,0.0001225,53.2177,116.3407,113.9666,246.1454,0.000373,5.654e-05,0.0,0 STARLINK-5451,1 54771U 22175P   24221.09292091  .00005654  00000-0  37300-3 0  9990,2 54771  53.2177 116.3407 0001225 113.9666 246.1454 15.08843980 92648,6917.868,95.437,540.581,538.886,0.0
54771.0,STARLINK-5451,PAYLOAD,2024-08-08 22:53:50,15.08825185,0.0001422,53.2187,112.4756,113.1893,246.9249,0.00051747,7.954e-05,0.0,0 STARLINK-5451,1 54771U 22175P   24221.95405205  .00007954  00000-0  51747-3 0  9994,2 54771  53.2187 112.4756 0001422 113.1893 246.9249 15.08825185 90618,6917.926,95.438,540.774,538.807,0.0
54771.0,STARLINK-5451,PAYLOAD,2024-08-09 02:04:34,15.0885678,0.000114,53.2175,111.8798,108.456,251.6556,7.6691e-05,9.33e-06,0.0,0 STARLINK-5451,1 54771U 22175P   24222.08651572  .00000933  00000-0  76691-4 0  9995,2 54771  53.2175 111.8798 0001140 108.4560 251.6556 15.08856780 90630,6917.829,95.436,540.483,538.905,0.0
54771.0,STARLINK-5451,PAYLOAD,2024-08-09 10:01:29,15.08870881,0.0001127,53.2183,110.3956,97.4073,262.7048,0.00017161,2.447e-05,0.0,0 STARLINK-5451,1 54771U 22175P   24222.41769980  .00002447  00000-0  17161-3 0  9993,2 54771  53.2183 110.3956 0001127  97.4073 262.7048 15.08870881 90682,6917.786,95.436,540.431,538.871,0.0
54771.0,STARLINK-5451,PAYLOAD,2024-08-09 21:09:13,15.08838892,0.0001342,53.2164,108.3185,77.0978,283.0164,-0.00018757,-3.272e-05,0.0,0 STARLINK-5451,1 54771U 22175P   24222.88140938 -.00003272  00000-0 -18757-3 0  9991,2 54771  53.2164 108.3185 0001342  77.0978 283.0164 15.08838892 90758,6917.884,95.438,540.677,538.82,0.0
54771.0,STARLINK-5451,PAYLOAD,2024-08-10 01:55:22,15.0884564,0.0001258,53.2185,107.4193,112.8895,247.223,2.1386e-06,-2.54e-06,0.0,0 STARLINK-5451,1 54771U 22175P   24223.08011811 -.00000254  00000-0  21386-5 0  9991,2 54771  53.2185 107.4193 0001258 112.8895 247.2230 15.08845640 90780,6917.863,95.437,540.598,538.858,0.0
54771.0,STARLINK-5451,PAYLOAD,2024-08-10 22:35:22,15.0884461,0.000117,53.2166,103.5542,97.6694,262.4431,6.5065e-05,7.48e-06,0.0,0 STARLINK-5451,1 54771U 22175P   24223.94123665  .00000748  00000-0  65065-4 0  9995,2 54771  53.2166 103.5542 0001170  97.6694 262.4431 15.08844610 93077,6917.866,95.437,540.541,538.922,0.0
54771.0,STARLINK-5451,PAYLOAD,2024-08-11 22:26:10,15.08832468,4.83e-05,53.2156,99.0999,70.6094,289.495,0.00018343,2.632e-05,0.0,0 STARLINK-5451,1 54771U 22175P   24224.93484401  .00002632  00000-0  18343-3 0  9993,2 54771  53.2156  99.0999 0000483  70.6094 289.4950 15.08832468 93222,6917.903,95.438,540.103,539.434,0.0
54771.0,STARLINK-5451,PAYLOAD,2024-08-12 01:36:56,15.08842063,0.0001234,53.218,98.4995,109.6686,250.4439,0.00017061,2.429e-05,0.0,0 STARLINK-5451,1 54771U 22175P   24225.06731913  .00002429  00000-0  17061-3 0  9991,2 54771  53.2180  98.4995 0001234 109.6686 250.4439 15.08842063 91087,6917.874,95.437,540.593,538.885,0.0
54771.0,STARLINK-5451,PAYLOAD,2024-08-12 15:55:24,15.08852466,0.0001126,53.2171,95.8244,107.7346,252.3769,0.00022844,3.351e-05,0.0,0 STARLINK-5451,1 54771U 22175P   24225.66347253  .00003351  00000-0  22844-3 0  9997,2 54771  53.2171  95.8244 0001126 107.7346 252.3769 15.08852466 91172,6917.842,95.437,540.486,538.928,0.0
54771.0,STARLINK-5451,PAYLOAD,2024-08-12 22:16:56,15.08860462,0.0001111,53.2162,94.6351,109.2656,250.8457,0.00038362,5.826e-05,0.0,0 STARLINK-5451,1 54771U 22175P   24225.92842893  .00005826  00000-0  38362-3 0  9997,2 54771  53.2162  94.6351 0001111 109.2656 250.8457 15.08860462 93379,6917.818,95.436,540.451,538.914,0.0
54771.0,STARLINK-5451,PAYLOAD,2024-08-13 01:27:42,15.08868359,0.0001074,53.2183,94.0398,106.9195,253.1915,0.00062312,9.651e-05,0.0,0 STARLINK-5451,1 54771U 22175P   24226.06090631  .00009651  00000-0  62312-3 0  9990,2 54771  53.2183  94.0398 0001074 106.9195 253.1915 15.08868359 91238,6917.794,95.436,540.402,538.916,0.0
